{
  "type": "FeatureCollection",
  "features": [
    {
      "type": "Feature",
      "properties": {
        "norad_id": 47062,
        "name": "COSMOS 2251 DEB",
        "group": "cosmos-2251-debris",
        "lat": 72.57359406206795,
        "lon": 138.264917973883,
        "alt_km": 1080.2611290179138,
        "timestamp": "2025-12-15T22:44:29.329030+00:00",
        "meta_object_name": "COSMOS 2251 DEB",
        "meta_object_id": "1993-036BXS",
        "meta_epoch": "2025-12-13T23:56:30.676992",
        "meta_mean_motion": 13.71952164,
        "meta_eccentricity": 0.03233862,
        "meta_inclination": 74.0831,
        "meta_ra_of_asc_node": 76.1003,
        "meta_arg_of_pericenter": 201.6929,
        "meta_mean_anomaly": 337.1469,
        "meta_ephemeris_type": 0,
        "meta_classification_type": "U",
        "meta_norad_cat_id": 47062,
        "meta_element_set_no": 999,
        "meta_rev_at_epoch": 55619,
        "meta_bstar": 0.0017198262,
        "meta_mean_motion_dot": 2.244e-05,
        "meta_mean_motion_ddot": 0,
        "tle_line1": "1 47062U 93036BXS 25347.99757728  .00002244  00000+0  17198-2 0  9994",
        "tle_line2": "2 47062  74.0831  76.1003 0323386 201.6929 337.1469 13.71952164556193"
      },
      "geometry": {
        "type": "Point",
        "coordinates": [
          138.264917973883,
          72.57359406206795
        ]
      }
    },
    {
      "type": "Feature",
      "properties": {
        "norad_id": 47068,
        "name": "COSMOS 2251 DEB",
        "group": "cosmos-2251-debris",
        "lat": 58.30216377071237,
        "lon": -134.94974551306703,
        "alt_km": 719.0366744090343,
        "timestamp": "2025-12-15T22:44:29.329040+00:00",
        "meta_object_name": "COSMOS 2251 DEB",
        "meta_object_id": "1993-036BXY",
        "meta_epoch": "2025-12-13T20:53:19.472064",
        "meta_mean_motion": 14.53162773,
        "meta_eccentricity": 0.00183454,
        "meta_inclination": 74.024,
        "meta_ra_of_asc_node": 201.3336,
        "meta_arg_of_pericenter": 288.2568,
        "meta_mean_anomaly": 71.6597,
        "meta_ephemeris_type": 0,
        "meta_classification_type": "U",
        "meta_norad_cat_id": 47068,
        "meta_element_set_no": 999,
        "meta_rev_at_epoch": 61773,
        "meta_bstar": 0.0010277009,
        "meta_mean_motion_dot": 4.239e-05,
        "meta_mean_motion_ddot": 0,
        "tle_line1": "1 47068U 93036BXY 25347.87036426  .00004239  00000+0  10277-2 0  9999",
        "tle_line2": "2 47068  74.0240 201.3336 0018345 288.2568  71.6597 14.53162773617730"
      },
      "geometry": {
        "type": "Point",
        "coordinates": [
          -134.94974551306703,
          58.30216377071237
        ]
      }
    },
    {
      "type": "Feature",
      "properties": {
        "norad_id": 47073,
        "name": "COSMOS 2251 DEB",
        "group": "cosmos-2251-debris",
        "lat": 26.99172147751564,
        "lon": -155.38277736103882,
        "alt_km": 981.4216992554493,
        "timestamp": "2025-12-15T22:44:29.329051+00:00",
        "meta_object_name": "COSMOS 2251 DEB",
        "meta_object_id": "1993-036BYD",
        "meta_epoch": "2025-12-15T07:13:18.345792",
        "meta_mean_motion": 14.04726954,
        "meta_eccentricity": 0.01614948,
        "meta_inclination": 74.0808,
        "meta_ra_of_asc_node": 197.3835,
        "meta_arg_of_pericenter": 235.0635,
        "meta_mean_anomaly": 123.5242,
        "meta_ephemeris_type": 0,
        "meta_classification_type": "U",
        "meta_norad_cat_id": 47073,
        "meta_element_set_no": 999,
        "meta_rev_at_epoch": 60397,
        "meta_bstar": 0.00047491463,
        "meta_mean_motion_dot": 8.3e-06,
        "meta_mean_motion_ddot": 0,
        "tle_line1": "1 47073U 93036BYD 25349.30090678  .00000830  00000+0  47491-3 0  9996",
        "tle_line2": "2 47073  74.0808 197.3835 0161494 235.0635 123.5242 14.04726954603971"
      },
      "geometry": {
        "type": "Point",
        "coordinates": [
          -155.38277736103882,
          26.99172147751564
        ]
      }
    },
    {
      "type": "Feature",
      "properties": {
        "norad_id": 47074,
        "name": "COSMOS 2251 DEB",
        "group": "cosmos-2251-debris",
        "lat": 3.888786634770253,
        "lon": 121.73397377941113,
        "alt_km": 867.8001493857755,
        "timestamp": "2025-12-15T22:44:29.329061+00:00",
        "meta_object_name": "COSMOS 2251 DEB",
        "meta_object_id": "1993-036BYE",
        "meta_epoch": "2025-12-14T04:11:13.221312",
        "meta_mean_motion": 14.35642167,
        "meta_eccentricity": 0.01443955,
        "meta_inclination": 74.0928,
        "meta_ra_of_asc_node": 306.0867,
        "meta_arg_of_pericenter": 333.9611,
        "meta_mean_anomaly": 42.2812,
        "meta_ephemeris_type": 0,
        "meta_classification_type": "U",
        "meta_norad_cat_id": 47074,
        "meta_element_set_no": 999,
        "meta_rev_at_epoch": 2703,
        "meta_bstar": 0.001977061,
        "meta_mean_motion_dot": 6.399e-05,
        "meta_mean_motion_ddot": 0,
        "tle_line1": "1 47074U 93036BYE 25348.17445858  .00006399  00000+0  19771-2 0  9990",
        "tle_line2": "2 47074  74.0928 306.0867 0144395 333.9611  42.2812 14.35642167 27036"
      },
      "geometry": {
        "type": "Point",
        "coordinates": [
          121.73397377941113,
          3.888786634770253
        ]
      }
    },
    {
      "type": "Feature",
      "properties": {
        "norad_id": 47116,
        "name": "COSMOS 2251 DEB",
        "group": "cosmos-2251-debris",
        "lat": 25.685313854666763,
        "lon": -117.86568770551402,
        "alt_km": 563.1772205122161,
        "timestamp": "2025-12-15T22:44:29.329072+00:00",
        "meta_object_name": "COSMOS 2251 DEB",
        "meta_object_id": "1993-036BYJ",
        "meta_epoch": "2025-12-11T00:06:23.501088",
        "meta_mean_motion": 14.98044349,
        "meta_eccentricity": 0.00215318,
        "meta_inclination": 74.0231,
        "meta_ra_of_asc_node": 244.2359,
        "meta_arg_of_pericenter": 338.282,
        "meta_mean_anomaly": 38.4094,
        "meta_ephemeris_type": 0,
        "meta_classification_type": "U",
        "meta_norad_cat_id": 47116,
        "meta_element_set_no": 999,
        "meta_rev_at_epoch": 59485,
        "meta_bstar": 0.0031113289,
        "meta_mean_motion_dot": 0.0003712,
        "meta_mean_motion_ddot": 0,
        "tle_line1": "1 47116U 93036BYJ 25345.00443867  .00037120  00000+0  31113-2 0  9994",
        "tle_line2": "2 47116  74.0231 244.2359 0021531 338.2820  38.4094 14.98044349594850"
      },
      "geometry": {
        "type": "Point",
        "coordinates": [
          -117.86568770551402,
          25.685313854666763
        ]
      }
    },
    {
      "type": "Feature",
      "properties": {
        "norad_id": 53093,
        "name": "COSMOS 2251 DEB",
        "group": "cosmos-2251-debris",
        "lat": -71.05170769965517,
        "lon": -120.97614228300074,
        "alt_km": 759.5568202120921,
        "timestamp": "2025-12-15T22:44:29.329083+00:00",
        "meta_object_name": "COSMOS 2251 DEB",
        "meta_object_id": "1993-036BYP",
        "meta_epoch": "2025-12-15T06:27:29.425248",
        "meta_mean_motion": 14.41896549,
        "meta_eccentricity": 0.00193997,
        "meta_inclination": 74.0365,
        "meta_ra_of_asc_node": 296.7668,
        "meta_arg_of_pericenter": 13.4989,
        "meta_mean_anomaly": 346.6682,
        "meta_ephemeris_type": 0,
        "meta_classification_type": "U",
        "meta_norad_cat_id": 53093,
        "meta_element_set_no": 999,
        "meta_rev_at_epoch": 17762,
        "meta_bstar": 0.00069048796,
        "meta_mean_motion_dot": 2.24e-05,
        "meta_mean_motion_ddot": 0,
        "tle_line1": "1 53093U 93036BYP 25349.26909057  .00002240  00000+0  69049-3 0  9990",
        "tle_line2": "2 53093  74.0365 296.7668 0019399  13.4989 346.6682 14.41896549177625"
      },
      "geometry": {
        "type": "Point",
        "coordinates": [
          -120.97614228300074,
          -71.05170769965517
        ]
      }
    }
  ]
}